{"type": "FeatureCollection", "features": [ {"type": "Feature", "properties": {"norad_id": 38953, "name": "BEIDOU-2 G6 (C02)", "group": "beidou", "lat": 0.37893758858358234, "lon": -110.26100559162728, "alt_km": 35800.058898682735, "timestamp": "2025-12-10T05:46:14.086948+00:00", "meta": {"OBJECT_NAME": "BEIDOU-2 G6 (C02)", "OBJECT_ID": "2012-059A", "EPOCH": "2025-12-09T19:06:31.590144", "MEAN_MOTION": 1.00269722, "ECCENTRICITY": 0.0007552, "INCLINATION": 3.9415, "RA_OF_ASC_NODE": 75.5279, "ARG_OF_PERICENTER": 289.1336, "MEAN_ANOMALY": 84.7783, "EPHEMERIS_TYPE": 0, "CLASSIFICATION_TYPE": "U", "NORAD_CAT_ID": 38953, "ELEMENT_SET_NO": 999, "REV_AT_EPOCH": 4801, "BSTAR": 0, "MEAN_MOTION_DOT": -1.73e-06, "MEAN_MOTION_DDOT": 0}, "tle": {"line1": "1 38953U 12059A   25343.79619896 -.00000173  00000+0  00000+0 0  9997", "line2": "2 38953   3.9415  75.5279 0007552 289.1336  84.7783  1.00269722 48017"}}, "geometry": {"type": "Point", "coordinates": [-110.26100559162728, 0.37893758858358234]}}, {"type": "Feature", "properties": {"norad_id": 40549, "name": "BEIDOU-3S IGSO-1S (C31)", "group": "beidou", "lat": -27.76609839576461, "lon": -88.9404425984169, "alt_km": 35880.27781307389, "timestamp": "2025-12-10T05:46:14.086960+00:00", "meta": {"OBJECT_NAME": "BEIDOU-3S IGSO-1S (C31)", "OBJECT_ID": "2015-019A", "EPOCH": "2025-12-07T20:38:38.671584", "MEAN_MOTION": 1.00293516, "ECCENTRICITY": 0.00368211, "INCLINATION": 49.562, "RA_OF_ASC_NODE": 297.7693, "ARG_OF_PERICENTER": 193.8977, "MEAN_ANOMALY": 348.5751, "EPHEMERIS_TYPE": 0, "CLASSIFICATION_TYPE": "U", "NORAD_CAT_ID": 40549, "ELEMENT_SET_NO": 999, "REV_AT_EPOCH": 3915, "BSTAR": 0, "MEAN_MOTION_DOT": -1.86e-06, "MEAN_MOTION_DDOT": 0}, "tle": {"line1": "1 40549U 15019A   25341.86016981 -.00000186  00000+0  00000+0 0  9996", "line2": "2 40549  49.5620 297.7693 0036821 193.8977 348.5751  1.00293516 39155"}}, "geometry": {"type": "Point", "coordinates": [-88.9404425984169, -27.76609839576461]}}, {"type": "Feature", "properties": {"norad_id": 40748, "name": "BEIDOU-3S M2S (C58)", "group": "beidou", "lat": -39.58935831769091, "lon": -86.78821409359311, "alt_km": 21506.941276420323, "timestamp": "2025-12-10T05:46:14.086971+00:00", "meta": {"OBJECT_NAME": "BEIDOU-3S M2S (C58)", "OBJECT_ID": "2015-037A", "EPOCH": "2025-12-09T05:49:19.735392", "MEAN_MOTION": 1.86228936, "ECCENTRICITY": 0.00124384, "INCLINATION": 55.042, "RA_OF_ASC_NODE": 308.5839, "ARG_OF_PERICENTER": 267.3919, "MEAN_ANOMALY": 92.4547, "EPHEMERIS_TYPE": 0, "CLASSIFICATION_TYPE": "U", "NORAD_CAT_ID": 40748, "ELEMENT_SET_NO": 999, "REV_AT_EPOCH": 7058, "BSTAR": 0, "MEAN_MOTION_DOT": -7.5e-07, "MEAN_MOTION_DDOT": 0}, "tle": {"line1": "1 40748U 15037A   25343.24258953 -.00000075  00000+0  00000+0 0  9995", "line2": "2 40748  55.0420 308.5839 0012438 267.3919  92.4547  1.86228936 70588"}}, "geometry": {"type": "Point", "coordinates": [-86.78821409359311, -39.58935831769091]}}, {"type": "Feature", "properties": {"norad_id": 40749, "name": "BEIDOU-3S M1S (C57)", "group": "beidou", "lat": 20.650725002462213, "lon": 113.24177951644658, "alt_km": 21532.082329274588, "timestamp": "2025-12-10T05:46:14.086982+00:00", "meta": {"OBJECT_NAME": "BEIDOU-3S M1S (C57)", "OBJECT_ID": "2015-037B", "EPOCH": "2025-12-08T22:28:18.289056", "MEAN_MOTION": 1.86253835, "ECCENTRICITY": 0.0003421, "INCLINATION": 55.0388, "RA_OF_ASC_NODE": 308.5837, "ARG_OF_PERICENTER": 357.7489, "MEAN_ANOMALY": 2.238, "EPHEMERIS_TYPE": 0, "CLASSIFICATION_TYPE": "U", "NORAD_CAT_ID": 40749, "ELEMENT_SET_NO": 999, "REV_AT_EPOCH": 7058, "BSTAR": 0, "MEAN_MOTION_DOT": -7.4e-07, "MEAN_MOTION_DDOT": 0}, "tle": {"line1": "1 40749U 15037B   25342.93632279 -.00000074  00000+0  00000+0 0  9997", "line2": "2 40749  55.0388 308.5837 0003421 357.7489   2.2380  1.86253835 70588"}}, "geometry": {"type": "Point", "coordinates": [113.24177951644658, 20.650725002462213]}}, {"type": "Feature", "properties": {"norad_id": 40938, "name": "BEIDOU-3S IGSO-2S (C56)", "group": "beidou", "lat": 0.6333713170987394, "lon": -98.43350941674983, "alt_km": 36042.93884377999, "timestamp": "2025-12-10T05:46:14.086993+00:00", "meta": {"OBJECT_NAME": "BEIDOU-3S IGSO-2S (C56)", "OBJECT_ID": "2015-053A", "EPOCH": "2025-12-09T17:40:38.610336", "MEAN_MOTION": 1.00270089, "ECCENTRICITY": 0.0061061, "INCLINATION": 49.5164, "RA_OF_ASC_NODE": 261.0407, "ARG_OF_PERICENTER": 188.3574, "MEAN_ANOMALY": 350.535, "EPHEMERIS_TYPE": 0, "CLASSIFICATION_TYPE": "U", "NORAD_CAT_ID": 40938, "ELEMENT_SET_NO": 999, "REV_AT_EPOCH": 3745, "BSTAR": 0, "MEAN_MOTION_DOT": -1.49e-06, "MEAN_MOTION_DDOT": 0}, "tle": {"line1": "1 40938U 15053A   25343.73655799 -.00000149  00000+0  00000+0 0  9999", "line2": "2 40938  49.5164 261.0407 0061061 188.3574 350.5350  1.00270089 37452"}}, "geometry": {"type": "Point", "coordinates": [-98.43350941674983, 0.6333713170987394]}}, {"type": "Feature", "properties": {"norad_id": 41434, "name": "BEIDOU-2 IGSO-6 (C13)", "group": "beidou", "lat": -32.62298807353672, "lon": -118.33233727856776, "alt_km": 35536.43098471862, "timestamp": "2025-12-10T05:46:14.087005+00:00", "meta": {"OBJECT_NAME": "BEIDOU-2 IGSO-6 (C13)", "OBJECT_ID": "2016-021A", "EPOCH": "2025-12-03T15:53:57.382080", "MEAN_MOTION": 1.00293531, "ECCENTRICITY": 0.00596341, "INCLINATION": 59.9536, "RA_OF_ASC_NODE": 39.991, "ARG_OF_PERICENTER": 228.541, "MEAN_ANOMALY": 135.1173, "EPHEMERIS_TYPE": 0, "CLASSIFICATION_TYPE": "U", "NORAD_CAT_ID": 41434, "ELEMENT_SET_NO": 999, "REV_AT_EPOCH": 3552, "BSTAR": 0, "MEAN_MOTION_DOT": -1.61e-06, "MEAN_MOTION_DDOT": 0}, "tle": {"line1": "1 41434U 16021A   25337.66246970 -.00000161  00000+0  00000+0 0  9993", "line2": "2 41434  59.9536  39.9910 0059634 228.5410 135.1173  1.00293531 35525"}}, "geometry": {"type": "Point", "coordinates": [-118.33233727856776, -32.62298807353672]}}, {"type": "Feature", "properties": {"norad_id": 41586, "name": "BEIDOU-2 G7 (C03)", "group": "beidou", "lat": -0.8533188026634613, "lon": -83.80247184331043, "alt_km": 35803.54294473367, "timestamp": "2025-12-10T05:46:14.087017+00:00", "meta": {"OBJECT_NAME": "BEIDOU-2 G7 (C03)", "OBJECT_ID": "2016-037A", "EPOCH": "2025-12-09T19:14:08.361024", "MEAN_MOTION": 1.00268395, "ECCENTRICITY": 0.0004343, "INCLINATION": 1.7498, "RA_OF_ASC_NODE": 67.7133, "ARG_OF_PERICENTER": 1.0737, "MEAN_ANOMALY": 48.9945, "EPHEMERIS_TYPE": 0, "CLASSIFICATION_TYPE": "U", "NORAD_CAT_ID": 41586, "ELEMENT_SET_NO": 999, "REV_AT_EPOCH": 499, "BSTAR": 0, "MEAN_MOTION_DOT": -3.51e-06, "MEAN_MOTION_DDOT": 0}, "tle": {"line1": "1 41586U 16037A   25343.80148566 -.00000351  00000+0  00000+0 0  9994", "line2": "2 41586   1.7498  67.7133 0004343   1.0737  48.9945  1.00268395  4999"}}, "geometry": {"type": "Point", "coordinates": [-83.80247184331043, -0.8533188026634613]}}, {"type": "Feature", "properties": {"norad_id": 43001, "name": "BEIDOU-3 M1 (C19)", "group": "beidou", "lat": 54.55037803466491, "lon": 137.46377255324208, "alt_km": 21539.10181842193, "timestamp": "2025-12-10T05:46:14.087028+00:00", "meta": {"OBJECT_NAME": "BEIDOU-3 M1 (C19)", "OBJECT_ID": "2017-069A", "EPOCH": "2025-12-09T14:06:31.411584", "MEAN_MOTION": 1.8623096, "ECCENTRICITY": 0.0009028, "INCLINATION": 56.5248, "RA_OF_ASC_NODE": 69.3379, "ARG_OF_PERICENTER": 303.8833, "MEAN_ANOMALY": 56.0533, "EPHEMERIS_TYPE": 0, "CLASSIFICATION_TYPE": "U", "NORAD_CAT_ID": 43001, "ELEMENT_SET_NO": 999, "REV_AT_EPOCH": 5507, "BSTAR": 0, "MEAN_MOTION_DOT": -4.9e-07, "MEAN_MOTION_DDOT": 0}, "tle": {"line1": "1 43001U 17069A   25343.58786356 -.00000049  00000+0  00000+0 0  9998", "line2": "2 43001  56.5248  69.3379 0009028 303.8833  56.0533  1.86230960 55078"}}, "geometry": {"type": "Point", "coordinates": [137.46377255324208, 54.55037803466491]}}, {"type": "Feature", "properties": {"norad_id": 43002, "name": "BEIDOU-3 M2 (C20)", "group": "beidou", "lat": 46.927538392191174, "lon": -155.61508133866175, "alt_km": 21537.024044707323, "timestamp": "2025-12-10T05:46:14.087039+00:00", "meta": {"OBJECT_NAME": "BEIDOU-3 M2 (C20)", "OBJECT_ID": "2017-069B", "EPOCH": "2025-12-09T12:37:45.819264", "MEAN_MOTION": 1.8623055, "ECCENTRICITY": 0.0006254, "INCLINATION": 56.5238, "RA_OF_ASC_NODE": 69.3764, "ARG_OF_PERICENTER": 332.6094, "MEAN_ANOMALY": 27.38, "EPHEMERIS_TYPE": 0, "CLASSIFICATION_TYPE": "U", "NORAD_CAT_ID": 43002, "ELEMENT_SET_NO": 999, "REV_AT_EPOCH": 5506, "BSTAR": 0, "MEAN_MOTION_DOT": -4.8e-07, "MEAN_MOTION_DDOT": 0}, "tle": {"line1": "1 43002U 17069B   25343.52622476 -.00000048  00000+0  00000+0 0  9994", "line2": "2 43002  56.5238  69.3764 0006254 332.6094  27.3800  1.86230550 55065"}}, "geometry": {"type": "Point", "coordinates": [-155.61508133866175, 46.927538392191174]}}, {"type": "Feature", "properties": {"norad_id": 43107, "name": "BEIDOU-3 M7 (C27)", "group": "beidou", "lat": -49.40638232408116, "lon": -107.46322285620757, "alt_km": 21538.939336615866, "timestamp": "2025-12-10T05:46:14.087050+00:00", "meta": {"OBJECT_NAME": "BEIDOU-3 M7 (C27)", "OBJECT_ID": "2018-003A", "EPOCH": "2025-12-09T06:27:46.625760", "MEAN_MOTION": 1.86232164, "ECCENTRICITY": 0.00025806, "INCLINATION": 54.4998, "RA_OF_ASC_NODE": 308.9358, "ARG_OF_PERICENTER": 71.0614, "MEAN_ANOMALY": 288.9559, "EPHEMERIS_TYPE": 0, "CLASSIFICATION_TYPE": "U", "NORAD_CAT_ID": 43107, "ELEMENT_SET_NO": 999, "REV_AT_EPOCH": 5381, "BSTAR": 0, "MEAN_MOTION_DOT": -7.7e-07, "MEAN_MOTION_DDOT": 0}, "tle": {"line1": "1 43107U 18003A   25343.26928965 -.00000077  00000+0  00000+0 0  9994", "line2": "2 43107  54.4998 308.9358 0002580  71.0614 288.9559  1.86232164 53812"}}, "geometry": {"type": "Point", "coordinates": [-107.46322285620757, -49.40638232408116]}}]}